0 OPS 8464 (TRANSIT 5B-7)
1 01514U 65065F   22239.94077971  .00000053  00000-0  84686-4 0  9999
2 01514  89.8990 234.6364 0072073 113.0367 304.8428 13.35029924775886
0 NAVSPASUR ROD 1
1  1515U 65065G   22239.97462083  .00000324  00000-0  49735-3 0  9991
2  1515  89.9423 216.5399 0057040  10.2211  50.1821 13.49115329793337
0 CALSPHERE 4(A)
1 01520U 65065H   22239.89419278  .00000104  00000-0  18217-3 0  9993
2 01520  89.9903 130.1219 0071265  62.3991  66.5626 13.35900666777197
0 THOR ABLESTAR DEB
1 01521U 65065K   22239.92243128  .00000009  00000-0 -78720-8 0  9992
2 01521  89.9439 212.3885 0068850 200.7075 213.8292 13.33178547774298
0 THOR ABLESTAR DEB
1 01522U 65065L   22239.22609750  .00000048  00000-0  78803-4 0  9993
2 01522  90.1480 111.4605 0070630 191.2456 295.7938 13.33677041774518
0 DELTA 1 DEB
1 01529U 65051D   22239.70462146  .00000069  00000-0  51245-4 0  9998
2 01529  99.1017  56.1468 0035691 248.7129 111.0235 14.23105577957855
0 SL-8 DEB
1 01549U 65020CV  22239.95222628  .00000052  00000-0  20044-3 0  9996
2 01549  56.1658 212.9103 0854059 344.0751  13.4765 12.62782022639337
0 COSMOS 80
1 01570U 65070A   22239.42872166 -.00000068  00000-0  17582-3 0  9996
2 01570  56.0548 281.2651 0100159 237.2840 220.5985 12.52770237607190
0 COSMOS 81
1 01571U 65070B   22239.61062429 -.00000089  00000-0  39623-4 0  9995
2 01571  56.0630 343.4457 0089000  21.1663 352.5006 12.48839029599035
0 COSMOS 82
1  1572U 65070C   22240.13185837 -.00000099  00000-0 -34215-4 0  9998
2  1572  56.0619  12.0503 0074494 202.8008 330.4707 12.45096545591711
0 COSMOS 83
1  1573U 65070D   22240.48013165 -.00000096  00000-0 -16855-4 0  9998
2  1573  56.0540  69.2782 0069190  34.7335 325.8057 12.41020212583395
0 COSMOS 84
1  1574U 65070E   22240.09575653 -.00000067  00000-0  18864-3 0  9999
2  1574  56.0527 125.5180 0062845 204.3254 303.2850 12.37011811574980
0 SL-8 R/B
1 01575U 65070F   22239.90501600 -.00000088  00000-0  52910-4 0  9993
2 01575  56.1247 303.8581 0098000   2.5675 168.6958 12.56981699616074
0 VANGUARD DEB
1 01576U 58002C   22239.89125409  .00000667  00000-0  57426-3 0  9996
2 01576  34.2349 102.4224 1448733 224.4033 123.1041 11.71623646638353
0 PORCUPINE 2
1 01577U 65065J   22239.95184741  .00000063  00000-0  10286-3 0  9998
2 01577  89.9515 213.1069 0072049  63.3899 351.1358 13.35866350777154
0 OPS 8068
1  1580U 65072A   22240.52813497  .00000149  00000-0  59494-4 0  9992
2  1580  98.3314  72.8847 0234002 189.0343 170.6594 14.27758886955275
0 THOR ALTAIR R/B
1  1583U 65072D   22240.11827444  .00000704  00000-0  14327-3 0  9999
2  1583  98.5079  61.7361 0157529 221.5426 137.3713 14.57008532984834
0 COSMOS 86
1 01584U 65073A   22239.94258873 -.00000067  00000-0  17084-3 0  9990
2 01584  56.0593 305.5488 0212378 202.2104 331.5726 12.51883117603479
0 COSMOS 87
1 01585U 65073B   22239.90317937 -.00000101  00000-0 -40615-4 0  9991
2 01585  56.0620  57.5924 0201701 323.1948 183.5900 12.47433940592394
0 COSMOS 88
1 01586U 65073C   22239.92015088 -.00000066  00000-0  19220-3 0  9992
2 01586  56.0593 127.3686 0189620 117.6531 341.2643 12.43319482585719
0 COSMOS 89
1 01587U 65073D   22239.95420198 -.00000113  00000-0 -15403-3 0  9991
2 01587  56.0550 219.5636 0167047 273.9278  84.2542 12.38964061576686
0 COSMOS 90
1  1588U 65073E   22240.48344177 -.00000077  00000-0  11299-3 0  9991
2  1588  56.0573 314.3867 0159237  59.0634  31.9115 12.34568435568152
0 SL-8 R/B
1  1589U 65073F   22239.95341059 -.00000070  00000-0  16861-3 0  9991
2  1589  56.0512 106.5719 0161418   2.6854  93.1437 12.33028180564740
0 SL-8 DEB
1 01590U 65073G   22239.40022397  .00000009  00000-0  64960-3 0  9998
2 01590  56.0834 241.3309 0180269 331.8555 179.2537 12.48949499584641
0 SL-8 DEB
1 01591U 65073H   22239.44241889 -.00000020  00000-0  50331-3 0  9993
2 01591  56.0564 250.0291 0158847 281.1136 227.4422 12.42379894575962
0 THOR ABLESTAR DEB
1  1608U 64083H   22240.08148147  .00000479  00000-0  43211-3 0  9993
2  1608  89.7658 102.0987 0021837  32.1279 100.0116 13.82435592883260
0 OV1-2
1 01613U 65078A   22239.77575098  .00001462  00000-0  11313-3 0  9998
2 01613 144.2372  83.2753 1213435  96.0750 277.9169 12.81542755535048
0 ATLAS D R/B
1  1616U 65078B   22240.20272194  .00005718  00000-0  53269-3 0  9996
2  1616 144.2395   4.2031 1078042 157.9863 207.0778 13.11925420566449
0 SL-8 DEB
1 01617U 65073J   22239.92783317 -.00000080  00000-0  74774-4 0  9996
2 01617  56.1295 103.3958 0237414 305.6229  65.5815 12.34169492558898
0 SL-8 DEB
1  1618U 65073K   22240.12705128 -.00000194  00000-0 -82310-3 0  9996
2  1618  56.1782 152.2309 0223389 285.8566 190.5618 12.29959775552600
0 SL-8 DEB
1 01634U 65020ED  22239.73101003  .00000006  00000-0  19036-3 0  9998
2 01634  56.1534 244.6183 0848029  12.3030 349.7244 12.47609392589017
0 OV2-1
1 01641U 65082C   22239.81331122  .00000130  00000-0  23237-4 0  9997
2 01641  32.2978  37.6094 0018825 133.8394 226.3810 14.53376453 14928
0 TITAN 3C TRANSTAGE DEB
1 01642U 65082D   22239.79560828  .00000335  00000-0  37822-4 0  9994
2 01642  32.0955  27.0364 0025510 343.2868  16.6939 14.79584552 31310
0 TITAN 3C TRANSTAGE DEB
1  1646U 65082H   22239.96984677  .00000366  00000-0  51180-4 0  9996
2  1646  32.3112  77.8130 0002519 152.9382 207.1401 14.72328460 36117
0 TITAN 3C TRANSTAGE DEB
1 01653U 65082Q   22239.91600917  .00000196  00000-0  30185-4 0  9994
2 01653  32.1191 116.2851 0041726  93.6510 266.8908 14.62395330  7857
0 TITAN 3C TRANSTAGE DEB
1 01668U 65082AF  22239.66572263  .00000422  00000-0  55206-4 0  9997
2 01668  32.0706 335.4709 0016379  57.2749 302.9476 14.74975350 12528
0 TITAN 3C TRANSTAGE DEB
1 01671U 65082AJ  22239.67804885  .00000139  00000-0  24811-4 0  9993
2 01671  32.1602 225.6262 0054079 131.8568 228.6706 14.51777056984299
0 TITAN 3C TRANSTAGE DEB
1  1672U 65082AK  22240.31448375  .00003500  00000-0  43415-3 0  9990
2  1672  32.3667 229.7766 0070968 114.1542 246.6552 14.79592970967265
0 TITAN 3C TRANSTAGE DEB
1  1680U 65082AT  22240.35430098  .00000159  00000-0  23214-4 0  9999
2  1680  32.2561 119.3296 0021794 300.0344  59.8142 14.63740719 31122
0 TITAN 3C TRANSTAGE DEB
1 01682U 65082AV  22239.76027450  .00000673  00000-0  11358-3 0  9994
2 01682  32.4111   8.6936 0055275 161.7499 198.5149 14.65380825985959
0 TITAN 3C TRANSTAGE DEB
1 01684U 65082AX  22239.89493601  .00000374  00000-0  10034-3 0  9993
2 01684  32.2156 138.4146 0185469 301.5086  56.7554 14.33045581942600
0 TITAN 3C TRANSTAGE DEB
1 01716U 65082BX  22239.21809257  .00000204  00000-0  38492-4 0  9994
2 01716  32.1898 160.8359 0040080 165.5228 194.6572 14.54448551  5775
0 TITAN 3C TRANSTAGE DEB
1 01722U 65082CD  22239.68529327  .00000249  00000-0  44003-4 0  9993
2 01722  32.4178 225.0437 0029085 321.4194  38.4378 14.60423422995600
0 EXPLORER 29 (GEOS 1)
1 01726U 65089A   22239.84635481 -.00000071  00000-0  30759-4 0  9998
2 01726  59.3774 272.1937 0717700  32.8768 133.6206 11.97050894483325
0 DELTA 1 R/B
1 01729U 65089B   22239.84130844 -.00000062  00000-0  81431-4 0  9997
2 01729  59.3887 258.0887 0713727   3.9028 165.5896 11.97519204484014
0 EXPLORER 30
1  1738U 65093A   22240.51891019 -.00000042  00000-0  32536-4 0  9996
2  1738  59.7077 283.7949 0129348 201.2478 158.3159 14.40375563977114
0 SCOUT X-4 R/B
1  1739U 65093B   22240.57615972  .00000052  00000-0  50726-4 0  9996
2  1739  59.7064 348.9209 0090348  48.6026 312.2738 14.51826383989236
0 A-1 (ASTERIX)
1 01778U 65096A   22239.92771024  .00000357  00000-0  10054-3 0  9997
2 01778  34.2548 104.0057 0749966 121.5254 246.0856 13.47220655777174
0 ALOUETTE 2
1 01804U 65098A   22239.88276978  .00000549  00000-0  17653-3 0  9997
2 01804  79.8034  16.1551 1342180 164.0419 200.7655 12.25822709508869
0 DIAMANT R/B
1  1805U 65096B   22240.43520409  .00000266  00000-0  59127-4 0  9999
2  1805  34.2468 257.1176 0615169 155.4609 207.6665 13.79961282811808
0 EXPLORER 31 (ISIS-X)
1 01806U 65098B   22239.90428048 -.00000758  00000-0 -26728-3 0  9996
2 01806  79.8112  52.1499 1434006 332.9853  20.3021 12.05843908481074
0 THOR AGENA B R/B
1  1807U 65098C   22240.46262474  .00000328  00000-0  10944-3 0  9993
2  1807  79.8354 135.0944 1349108 321.0751  30.0280 12.24316770502693
0 FR 1
1 01814U 65101A   22239.91568212  .00000297  00000-0  55791-4 0  9998
2 01814  75.8661 219.5067 0007034 283.1033  76.9361 14.67059319852050
0 SCOUT X-4 R/B
1  1815U 65101B   22240.19053978  .00000599  00000-0  81422-4 0  9994
2  1815  75.8444 283.0700 0004305  25.4730 334.6668 14.80105801883117
0 TITAN 3C TRANSTAGE DEB
1 01829U 65082DU  22239.78859754  .00000728  00000-0  91681-4 0  9998
2 01829  32.2906 135.4617 0029511 134.3627 225.9449 14.78558399 14015
0 TITAN 3C TRANSTAGE DEB
1 01833U 65082DY  22239.90463242  .00000495  00000-0  90064-4 0  9995
2 01833  32.2253 187.9877 0076555 148.1636 212.3667 14.59879384965856
0 TITAN 3C TRANSTAGE DEB
1 01835U 65082EA  22238.94818560  .00000766  00000-0  67425-4 0  9993
2 01835  32.3933  90.2900 0015663 328.8512  31.1218 14.93384661 38385
0 TITAN 3C TRANSTAGE DEB
1 01859U 65082ES  22239.81649408  .00000237  00000-0  53693-4 0  9994
2 01859  32.1262 275.9800 0069289 356.6029   3.4135 14.46708257985560
0 TITAN 3C TRANSTAGE R/B
1  1863U 65108A   22239.95702096  .00000927  00000-0  53418-3 0  9996
2  1863  26.7159 143.8183 6084562 240.4941  46.1513  3.86918901313881
0 OPS 1509 (TRANSIT 10)
1 01864U 65109A   22239.88779360  .00000071  00000-0  54267-4 0  9992
2 01864  89.0845  12.3753 0112819 106.0140 255.3487 13.78353473844677
0 SCOUT A R/B
1  1865U 65109B   22240.16889778  .00000080  00000-0  66953-4 0  9996
2  1865  89.0852  24.7078 0110900 220.1442 139.1493 13.76319192842947
0 TITAN 3C TRANSTAGE DEB
1 01883U 65082EY  22239.49986519  .00000977  00000-0  65977-4 0  9991
2 01883  32.0929 289.7042 0021273 181.2144 178.8463 15.03340945 54768
0 TITAN 3C TRANSTAGE DEB
1 01915U 65082FZ  22239.20266177  .00000196  00000-0  34143-4 0  9991
2 01915  31.8765 190.0459 0029866 338.1693  21.7673 14.56127145 12511
